{"fetched_at":"2026-07-20T18:29:26.415Z","source":"https://celestrak.org/NORAD/elements/gp.php?NAME=HULIANWANG&FORMAT=JSON","constellation":"guowang","records":[{"OBJECT_NAME":"HULIANWANG JISHU SHIYAN A","OBJECT_ID":"2023-095A","EPOCH":"2026-07-20T08:19:23.043072","CLASSIFICATION_TYPE":"U","MEAN_MOTION":13.39544498,"ECCENTRICITY":0.00195519,"INCLINATION":86.5049,"RA_OF_ASC_NODE":353.2955,"ARG_OF_PERICENTER":98.2623,"MEAN_ANOMALY":262.0738,"EPHEMERIS_TYPE":0,"NORAD_CAT_ID":57288,"ELEMENT_SET_NO":999,"REV_AT_EPOCH":14819,"BSTAR":0.00004497268,"MEAN_MOTION_DOT":4e-7,"MEAN_MOTION_DDOT":0},{"OBJECT_NAME":"HULIANWANG JISHU SHIYAN B","OBJECT_ID":"2023-095B","EPOCH":"2026-07-20T08:07:05.364192","CLASSIFICATION_TYPE":"U","MEAN_MOTION":13.3955314,"ECCENTRICITY":0.00181298,"INCLINATION":86.5051,"RA_OF_ASC_NODE":353.3079,"ARG_OF_PERICENTER":96.4288,"MEAN_ANOMALY":263.892,"EPHEMERIS_TYPE":0,"NORAD_CAT_ID":57289,"ELEMENT_SET_NO":999,"REV_AT_EPOCH":14819,"BSTAR":0.000043812635,"MEAN_MOTION_DOT":3.9e-7,"MEAN_MOTION_DDOT":0},{"OBJECT_NAME":"HULIANWANG JISHU SHIYAN 4A","OBJECT_ID":"2023-212A","EPOCH":"2026-07-20T07:18:14.153472","CLASSIFICATION_TYPE":"U","MEAN_MOTION":13.41459312,"ECCENTRICITY":0.00012358,"INCLINATION":49.9983,"RA_OF_ASC_NODE":222.4111,"ARG_OF_PERICENTER":237.5251,"MEAN_ANOMALY":122.5507,"EPHEMERIS_TYPE":0,"NORAD_CAT_ID":58691,"ELEMENT_SET_NO":999,"REV_AT_EPOCH":12569,"BSTAR":0.000044738301,"MEAN_MOTION_DOT":-0.00000103,"MEAN_MOTION_DDOT":0},{"OBJECT_NAME":"HULIANWANG JISHU SHIYAN 4B","OBJECT_ID":"2023-212B","EPOCH":"2026-07-20T05:21:17.182656","CLASSIFICATION_TYPE":"U","MEAN_MOTION":13.41460412,"ECCENTRICITY":0.00013872,"INCLINATION":49.9951,"RA_OF_ASC_NODE":223.065,"ARG_OF_PERICENTER":226.4487,"MEAN_ANOMALY":133.6275,"EPHEMERIS_TYPE":0,"NORAD_CAT_ID":58692,"ELEMENT_SET_NO":999,"REV_AT_EPOCH":12568,"BSTAR":0.000037762893,"MEAN_MOTION_DOT":-0.00000107,"MEAN_MOTION_DDOT":0},{"OBJECT_NAME":"HULIANWANG JISHU SHIYAN 4C","OBJECT_ID":"2023-212C","EPOCH":"2026-07-20T05:25:57.027936","CLASSIFICATION_TYPE":"U","MEAN_MOTION":13.41462242,"ECCENTRICITY":0.00012335,"INCLINATION":49.9965,"RA_OF_ASC_NODE":223.1805,"ARG_OF_PERICENTER":215.8035,"MEAN_ANOMALY":144.276,"EPHEMERIS_TYPE":0,"NORAD_CAT_ID":58693,"ELEMENT_SET_NO":999,"REV_AT_EPOCH":12569,"BSTAR":0.000027353914,"MEAN_MOTION_DOT":-0.00000113,"MEAN_MOTION_DDOT":0},{"OBJECT_NAME":"HULIANWANG DIGUI-01","OBJECT_ID":"2024-240A","EPOCH":"2026-07-20T07:33:43.817472","CLASSIFICATION_TYPE":"U","MEAN_MOTION":13.24411693,"ECCENTRICITY":0.00020199,"INCLINATION":86.5025,"RA_OF_ASC_NODE":332.0623,"ARG_OF_PERICENTER":104.5498,"MEAN_ANOMALY":255.586,"EPHEMERIS_TYPE":0,"NORAD_CAT_ID":62323,"ELEMENT_SET_NO":999,"REV_AT_EPOCH":7702,"BSTAR":0.0001129403,"MEAN_MOTION_DOT":6.3e-7,"MEAN_MOTION_DDOT":0},{"OBJECT_NAME":"HULIANWANG DIGUI-02","OBJECT_ID":"2024-240B","EPOCH":"2026-07-20T05:55:41.077344","CLASSIFICATION_TYPE":"U","MEAN_MOTION":13.24411601,"ECCENTRICITY":0.00019948,"INCLINATION":86.5054,"RA_OF_ASC_NODE":332.2538,"ARG_OF_PERICENTER":104.9366,"MEAN_ANOMALY":255.1989,"EPHEMERIS_TYPE":0,"NORAD_CAT_ID":62324,"ELEMENT_SET_NO":999,"REV_AT_EPOCH":7702,"BSTAR":0.000090697864,"MEAN_MOTION_DOT":5.4e-7,"MEAN_MOTION_DDOT":0},{"OBJECT_NAME":"HULIANWANG DIGUI-03","OBJECT_ID":"2024-240C","EPOCH":"2026-07-20T07:22:49.827360","CLASSIFICATION_TYPE":"U","MEAN_MOTION":13.24410249,"ECCENTRICITY":0.00020472,"INCLINATION":86.5007,"RA_OF_ASC_NODE":331.9614,"ARG_OF_PERICENTER":102.7951,"MEAN_ANOMALY":257.3412,"EPHEMERIS_TYPE":0,"NORAD_CAT_ID":62325,"ELEMENT_SET_NO":999,"REV_AT_EPOCH":7702,"BSTAR":0.0001094089,"MEAN_MOTION_DOT":6.2e-7,"MEAN_MOTION_DDOT":0},{"OBJECT_NAME":"HULIANWANG DIGUI-04","OBJECT_ID":"2024-240D","EPOCH":"2026-07-20T07:11:58.511328","CLASSIFICATION_TYPE":"U","MEAN_MOTION":13.24410532,"ECCENTRICITY":0.00021658,"INCLINATION":86.5016,"RA_OF_ASC_NODE":332.0078,"ARG_OF_PERICENTER":102.177,"MEAN_ANOMALY":257.9606,"EPHEMERIS_TYPE":0,"NORAD_CAT_ID":62326,"ELEMENT_SET_NO":999,"REV_AT_EPOCH":7702,"BSTAR":0.00010170955,"MEAN_MOTION_DOT":5.8e-7,"MEAN_MOTION_DDOT":0},{"OBJECT_NAME":"HULIANWANG DIGUI-05","OBJECT_ID":"2024-240E","EPOCH":"2026-07-20T07:01:05.746368","CLASSIFICATION_TYPE":"U","MEAN_MOTION":13.24411166,"ECCENTRICITY":0.00021949,"INCLINATION":86.5068,"RA_OF_ASC_NODE":332.2987,"ARG_OF_PERICENTER":99.6901,"MEAN_ANOMALY":260.4481,"EPHEMERIS_TYPE":0,"NORAD_CAT_ID":62327,"ELEMENT_SET_NO":999,"REV_AT_EPOCH":7702,"BSTAR":0.000047718732,"MEAN_MOTION_DOT":3.5e-7,"MEAN_MOTION_DDOT":0},{"OBJECT_NAME":"HULIANWANG DIGUI-06","OBJECT_ID":"2024-240F","EPOCH":"2026-07-20T06:39:21.103776","CLASSIFICATION_TYPE":"U","MEAN_MOTION":13.24408671,"ECCENTRICITY":0.00021746,"INCLINATION":86.5006,"RA_OF_ASC_NODE":331.9404,"ARG_OF_PERICENTER":106.3567,"MEAN_ANOMALY":253.7806,"EPHEMERIS_TYPE":0,"NORAD_CAT_ID":62328,"ELEMENT_SET_NO":999,"REV_AT_EPOCH":7702,"BSTAR":0.000003742251,"MEAN_MOTION_DOT":1.6e-7,"MEAN_MOTION_DDOT":0},{"OBJECT_NAME":"HULIANWANG DIGUI-07","OBJECT_ID":"2024-240G","EPOCH":"2026-07-20T06:28:26.324832","CLASSIFICATION_TYPE":"U","MEAN_MOTION":13.24411189,"ECCENTRICITY":0.00020685,"INCLINATION":86.4977,"RA_OF_ASC_NODE":331.7721,"ARG_OF_PERICENTER":104.3318,"MEAN_ANOMALY":255.8046,"EPHEMERIS_TYPE":0,"NORAD_CAT_ID":62329,"ELEMENT_SET_NO":999,"REV_AT_EPOCH":7702,"BSTAR":0.000027246078,"MEAN_MOTION_DOT":2.6e-7,"MEAN_MOTION_DDOT":0},{"OBJECT_NAME":"HULIANWANG DIGUI-08","OBJECT_ID":"2024-240H","EPOCH":"2026-07-20T06:50:12.721344","CLASSIFICATION_TYPE":"U","MEAN_MOTION":13.2441147,"ECCENTRICITY":0.00022671,"INCLINATION":86.506,"RA_OF_ASC_NODE":332.2474,"ARG_OF_PERICENTER":99.4737,"MEAN_ANOMALY":260.6653,"EPHEMERIS_TYPE":0,"NORAD_CAT_ID":62330,"ELEMENT_SET_NO":999,"REV_AT_EPOCH":7702,"BSTAR":0.000034275138,"MEAN_MOTION_DOT":2.9e-7,"MEAN_MOTION_DDOT":0},{"OBJECT_NAME":"HULIANWANG DIGUI-09","OBJECT_ID":"2024-240J","EPOCH":"2026-07-20T06:17:34.192320","CLASSIFICATION_TYPE":"U","MEAN_MOTION":13.244101,"ECCENTRICITY":0.00020296,"INCLINATION":86.5026,"RA_OF_ASC_NODE":332.1053,"ARG_OF_PERICENTER":103.1747,"MEAN_ANOMALY":256.9614,"EPHEMERIS_TYPE":0,"NORAD_CAT_ID":62331,"ELEMENT_SET_NO":999,"REV_AT_EPOCH":7701,"BSTAR":0.000021739925,"MEAN_MOTION_DOT":2.4e-7,"MEAN_MOTION_DDOT":0},{"OBJECT_NAME":"HULIANWANG DIGUI-10","OBJECT_ID":"2024-240K","EPOCH":"2026-07-20T06:06:41.595840","CLASSIFICATION_TYPE":"U","MEAN_MOTION":13.24410924,"ECCENTRICITY":0.00021286,"INCLINATION":86.5057,"RA_OF_ASC_NODE":332.2703,"ARG_OF_PERICENTER":105.1737,"MEAN_ANOMALY":254.9632,"EPHEMERIS_TYPE":0,"NORAD_CAT_ID":62332,"ELEMENT_SET_NO":999,"REV_AT_EPOCH":7701,"BSTAR":0.000065300494,"MEAN_MOTION_DOT":4.3e-7,"MEAN_MOTION_DDOT":0},{"OBJECT_NAME":"HULIANWANG DIGUI-11","OBJECT_ID":"2025-030A","EPOCH":"2026-07-20T05:44:27.182400","CLASSIFICATION_TYPE":"U","MEAN_MOTION":13.29324715,"ECCENTRICITY":0.00009126,"INCLINATION":50.0005,"RA_OF_ASC_NODE":117.2721,"ARG_OF_PERICENTER":288.6868,"MEAN_ANOMALY":71.3905,"EPHEMERIS_TYPE":0,"NORAD_CAT_ID":62971,"ELEMENT_SET_NO":999,"REV_AT_EPOCH":7025,"BSTAR":0.000083812324,"MEAN_MOTION_DOT":-8.5e-7,"MEAN_MOTION_DDOT":0}]}
