HULIANWANG JISHU SHIYAN*
1 57288U 23095A   26201.34679448  .00000040  00000+0  44973-4 0  9999
2 57288  86.5049 353.2955 0019551  98.2623 262.0738 13.39544498148198
HULIANWANG JISHU SHIYAN*
1 57289U 23095B   26201.33825653  .00000039  00000+0  43813-4 0  9990
2 57289  86.5051 353.3079 0018129  96.4288 263.8920 13.39553140148193
HULIANWANG JISHU SHIYAN*
1 58691U 23212A   26201.30433048 -.00000103  00000+0  44738-4 0  9999
2 58691  49.9983 222.4111 0001235 237.5251 122.5507 13.41459312125690
HULIANWANG JISHU SHIYAN*
1 58692U 23212B   26201.22311554 -.00000107  00000+0  37763-4 0  9992
2 58692  49.9951 223.0650 0001387 226.4487 133.6275 13.41460412125684
HULIANWANG JISHU SHIYAN*
1 58693U 23212C   26201.22635449 -.00000113  00000+0  27354-4 0  9997
2 58693  49.9965 223.1805 0001233 215.8035 144.2760 13.41462242125695
HULIANWANG DIGUI-01     
1 62323U 24240A   26201.31509048  .00000063  00000+0  11294-3 0  9997
2 62323  86.5025 332.0623 0002019 104.5498 255.5860 13.24411693 77027
HULIANWANG DIGUI-02     
1 62324U 24240B   26201.24700321  .00000054  00000+0  90698-4 0  9993
2 62324  86.5054 332.2538 0001994 104.9366 255.1989 13.24411601 77023
HULIANWANG DIGUI-03     
1 62325U 24240C   26201.30752115  .00000062  00000+0  10941-3 0  9990
2 62325  86.5007 331.9614 0002047 102.7951 257.3412 13.24410249 77021
HULIANWANG DIGUI-04     
1 62326U 24240D   26201.29998277  .00000058  00000+0  10171-3 0  9990
2 62326  86.5016 332.0078 0002165 102.1770 257.9606 13.24410532 77028
HULIANWANG DIGUI-05     
1 62327U 24240E   26201.29242762  .00000035  00000+0  47719-4 0  9996
2 62327  86.5068 332.2987 0002194  99.6901 260.4481 13.24411166 77029
HULIANWANG DIGUI-06     
1 62328U 24240F   26201.27732759  .00000016  00000+0  37423-5 0  9996
2 62328  86.5006 331.9404 0002174 106.3567 253.7806 13.24408671 77027
HULIANWANG DIGUI-07     
1 62329U 24240G   26201.26974913  .00000026  00000+0  27246-4 0  9998
2 62329  86.4977 331.7721 0002068 104.3318 255.8046 13.24411189 77025
HULIANWANG DIGUI-08     
1 62330U 24240H   26201.28486946  .00000029  00000+0  34275-4 0  9999
2 62330  86.5060 332.2474 0002267  99.4737 260.6653 13.24411470 77023
HULIANWANG DIGUI-09     
1 62331U 24240J   26201.26220130  .00000024  00000+0  21740-4 0  9997
2 62331  86.5026 332.1053 0002029 103.1747 256.9614 13.24410100 77011
HULIANWANG DIGUI-10     
1 62332U 24240K   26201.25464810  .00000043  00000+0  65300-4 0  9993
2 62332  86.5057 332.2703 0002128 105.1737 254.9632 13.24410924 77012
HULIANWANG DIGUI-11     
1 62971U 25030A   26201.23920350 -.00000085  00000+0  83812-4 0  9999
2 62971  50.0005 117.2721 0000912 288.6868  71.3905 13.29324715 70252
